SILVERSAT               
1 66909U 98067XV  26038.73712105  .00146297  00000+0  15693-2 0  9999
2 66909  51.6271 217.1469 0002576 230.2251 129.8516 15.62808493 10491
ISS OBJECT XW           
1 66910U 98067XW  26038.75165351  .00124600  00000+0  14148-2 0  9996
2 66910  51.6262 217.2388 0000983 258.5946 101.4937 15.61429611 10491
ISS OBJECT XX           
1 66911U 98067XX  26038.70806818  .00165665  00000+0  16909-2 0  9995
2 66911  51.6247 216.9470 0002516 264.5889  95.4819 15.64004478 10483
ISS OBJECT XY           
1 66912U 98067XY  26038.74848449  .00088919  00000+0  11315-2 0  9998
2 66912  51.6283 217.9746 0001112 162.5092 197.5939 15.58603065 10471
ISS OBJECT XZ           
1 67683U 98067XZ  26038.95218879  .00039054  00000+0  70158-3 0  9992
2 67683  51.6309 219.3314 0011067  90.8289 269.3968 15.49420824   170
ISS OBJECT YA           
1 67684U 98067YA  26038.95140831  .00067604  00000+0  11857-2 0  9997
2 67684  51.6310 219.3274 0013081  86.5899 273.6586 15.49832053   170
LEOPARD                 
1 67685U 98067YB  26038.95200220  .00041806  00000+0  74726-3 0  9998
2 67685  51.6310 219.3305 0013033  86.1189 274.1289 15.49505859   178
ISS OBJECT YC           
1 67686U 98067YC  26038.95190626  .00049570  00000+0  88311-3 0  9998
2 67686  51.6318 219.3303 0007830  64.5280 295.6518 15.49582531   170
CORAL                   
1 67687U 98067YD  26039.08106976  .00039685  00000+0  71187-3 0  9998
2 67687  51.6314 218.6929 0007899  65.9594 294.2221 15.49487261   115
GXIBA-1                 
1 67688U 98067YE  26038.95191701  .00042387  00000+0  75762-3 0  9990
2 67688  51.6318 219.3305 0007805  65.3010 294.8790 15.49559502    92
