CCSDS_OMM_VERS = 2.0
CREATION_DATE  = 
ORIGINATOR     = 

OBJECT_NAME    = SILVERSAT
OBJECT_ID      = 1998-067XV
CENTER_NAME    = EARTH
REF_FRAME      = TEME
TIME_SYSTEM    = UTC
MEAN_ELEMENT_THEORY = SGP/SGP4

EPOCH          = 2026-02-07T17:41:27.258720
MEAN_MOTION    = 15.62808493
ECCENTRICITY   = .0002576
INCLINATION    = 51.6271
RA_OF_ASC_NODE = 217.1469
ARG_OF_PERICENTER = 230.2251
MEAN_ANOMALY   = 129.8516

EPHEMERIS_TYPE = 0
CLASSIFICATION_TYPE = U
NORAD_CAT_ID   = 66909
ELEMENT_SET_NO = 999
REV_AT_EPOCH   = 1049
BSTAR          = .15693217E-2
MEAN_MOTION_DOT = .146297E-2
MEAN_MOTION_DDOT = 0

CCSDS_OMM_VERS = 2.0
CREATION_DATE  = 
ORIGINATOR     = 

OBJECT_NAME    = ISS OBJECT XW
OBJECT_ID      = 1998-067XW
CENTER_NAME    = EARTH
REF_FRAME      = TEME
TIME_SYSTEM    = UTC
MEAN_ELEMENT_THEORY = SGP/SGP4

EPOCH          = 2026-02-07T18:02:22.863264
MEAN_MOTION    = 15.61429611
ECCENTRICITY   = .00009834
INCLINATION    = 51.6262
RA_OF_ASC_NODE = 217.2388
ARG_OF_PERICENTER = 258.5946
MEAN_ANOMALY   = 101.4937

EPHEMERIS_TYPE = 0
CLASSIFICATION_TYPE = U
NORAD_CAT_ID   = 66910
ELEMENT_SET_NO = 999
REV_AT_EPOCH   = 1049
BSTAR          = .1414812E-2
MEAN_MOTION_DOT = .1246E-2
MEAN_MOTION_DDOT = 0

CCSDS_OMM_VERS = 2.0
CREATION_DATE  = 
ORIGINATOR     = 

OBJECT_NAME    = ISS OBJECT XX
OBJECT_ID      = 1998-067XX
CENTER_NAME    = EARTH
REF_FRAME      = TEME
TIME_SYSTEM    = UTC
MEAN_ELEMENT_THEORY = SGP/SGP4

EPOCH          = 2026-02-07T16:59:37.090752
MEAN_MOTION    = 15.64004478
ECCENTRICITY   = .00025167
INCLINATION    = 51.6247
RA_OF_ASC_NODE = 216.9470
ARG_OF_PERICENTER = 264.5889
MEAN_ANOMALY   = 95.4819

EPHEMERIS_TYPE = 0
CLASSIFICATION_TYPE = U
NORAD_CAT_ID   = 66911
ELEMENT_SET_NO = 999
REV_AT_EPOCH   = 1048
BSTAR          = .16908932E-2
MEAN_MOTION_DOT = .165665E-2
MEAN_MOTION_DDOT = 0

CCSDS_OMM_VERS = 2.0
CREATION_DATE  = 
ORIGINATOR     = 

OBJECT_NAME    = ISS OBJECT XY
OBJECT_ID      = 1998-067XY
CENTER_NAME    = EARTH
REF_FRAME      = TEME
TIME_SYSTEM    = UTC
MEAN_ELEMENT_THEORY = SGP/SGP4

EPOCH          = 2026-02-07T17:57:49.059936
MEAN_MOTION    = 15.58603065
ECCENTRICITY   = .00011122
INCLINATION    = 51.6283
RA_OF_ASC_NODE = 217.9746
ARG_OF_PERICENTER = 162.5092
MEAN_ANOMALY   = 197.5939

EPHEMERIS_TYPE = 0
CLASSIFICATION_TYPE = U
NORAD_CAT_ID   = 66912
ELEMENT_SET_NO = 999
REV_AT_EPOCH   = 1047
BSTAR          = .11314625E-2
MEAN_MOTION_DOT = .88919E-3
MEAN_MOTION_DDOT = 0

CCSDS_OMM_VERS = 2.0
CREATION_DATE  = 
ORIGINATOR     = 

OBJECT_NAME    = ISS OBJECT XZ
OBJECT_ID      = 1998-067XZ
CENTER_NAME    = EARTH
REF_FRAME      = TEME
TIME_SYSTEM    = UTC
MEAN_ELEMENT_THEORY = SGP/SGP4

EPOCH          = 2026-02-07T22:51:09.111456
MEAN_MOTION    = 15.49420824
ECCENTRICITY   = .0011067
INCLINATION    = 51.6309
RA_OF_ASC_NODE = 219.3314
ARG_OF_PERICENTER = 90.8289
MEAN_ANOMALY   = 269.3968

EPHEMERIS_TYPE = 0
CLASSIFICATION_TYPE = U
NORAD_CAT_ID   = 67683
ELEMENT_SET_NO = 999
REV_AT_EPOCH   = 17
BSTAR          = .70158E-3
MEAN_MOTION_DOT = .39054E-3
MEAN_MOTION_DDOT = 0

CCSDS_OMM_VERS = 2.0
CREATION_DATE  = 
ORIGINATOR     = 

OBJECT_NAME    = ISS OBJECT YA
OBJECT_ID      = 1998-067YA
CENTER_NAME    = EARTH
REF_FRAME      = TEME
TIME_SYSTEM    = UTC
MEAN_ELEMENT_THEORY = SGP/SGP4

EPOCH          = 2026-02-07T22:50:01.677984
MEAN_MOTION    = 15.49832053
ECCENTRICITY   = .0013081
INCLINATION    = 51.6310
RA_OF_ASC_NODE = 219.3274
ARG_OF_PERICENTER = 86.5899
MEAN_ANOMALY   = 273.6586

EPHEMERIS_TYPE = 0
CLASSIFICATION_TYPE = U
NORAD_CAT_ID   = 67684
ELEMENT_SET_NO = 999
REV_AT_EPOCH   = 17
BSTAR          = .11857E-2
MEAN_MOTION_DOT = .67604E-3
MEAN_MOTION_DDOT = 0

CCSDS_OMM_VERS = 2.0
CREATION_DATE  = 
ORIGINATOR     = 

OBJECT_NAME    = LEOPARD
OBJECT_ID      = 1998-067YB
CENTER_NAME    = EARTH
REF_FRAME      = TEME
TIME_SYSTEM    = UTC
MEAN_ELEMENT_THEORY = SGP/SGP4

EPOCH          = 2026-02-07T22:50:52.990080
MEAN_MOTION    = 15.49505859
ECCENTRICITY   = .0013033
INCLINATION    = 51.6310
RA_OF_ASC_NODE = 219.3305
ARG_OF_PERICENTER = 86.1189
MEAN_ANOMALY   = 274.1289

EPHEMERIS_TYPE = 0
CLASSIFICATION_TYPE = U
NORAD_CAT_ID   = 67685
ELEMENT_SET_NO = 999
REV_AT_EPOCH   = 17
BSTAR          = .74726E-3
MEAN_MOTION_DOT = .41806E-3
MEAN_MOTION_DDOT = 0

CCSDS_OMM_VERS = 2.0
CREATION_DATE  = 
ORIGINATOR     = 

OBJECT_NAME    = ISS OBJECT YC
OBJECT_ID      = 1998-067YC
CENTER_NAME    = EARTH
REF_FRAME      = TEME
TIME_SYSTEM    = UTC
MEAN_ELEMENT_THEORY = SGP/SGP4

EPOCH          = 2026-02-07T22:50:44.700864
MEAN_MOTION    = 15.49582531
ECCENTRICITY   = .000783
INCLINATION    = 51.6318
RA_OF_ASC_NODE = 219.3303
ARG_OF_PERICENTER = 64.5280
MEAN_ANOMALY   = 295.6518

EPHEMERIS_TYPE = 0
CLASSIFICATION_TYPE = U
NORAD_CAT_ID   = 67686
ELEMENT_SET_NO = 999
REV_AT_EPOCH   = 17
BSTAR          = .88311E-3
MEAN_MOTION_DOT = .4957E-3
MEAN_MOTION_DDOT = 0

CCSDS_OMM_VERS = 2.0
CREATION_DATE  = 
ORIGINATOR     = 

OBJECT_NAME    = CORAL
OBJECT_ID      = 1998-067YD
CENTER_NAME    = EARTH
REF_FRAME      = TEME
TIME_SYSTEM    = UTC
MEAN_ELEMENT_THEORY = SGP/SGP4

EPOCH          = 2026-02-08T01:56:44.427264
MEAN_MOTION    = 15.49487261
ECCENTRICITY   = .0007899
INCLINATION    = 51.6314
RA_OF_ASC_NODE = 218.6929
ARG_OF_PERICENTER = 65.9594
MEAN_ANOMALY   = 294.2221

EPHEMERIS_TYPE = 0
CLASSIFICATION_TYPE = U
NORAD_CAT_ID   = 67687
ELEMENT_SET_NO = 999
REV_AT_EPOCH   = 11
BSTAR          = .71187E-3
MEAN_MOTION_DOT = .39685E-3
MEAN_MOTION_DDOT = 0

CCSDS_OMM_VERS = 2.0
CREATION_DATE  = 
ORIGINATOR     = 

OBJECT_NAME    = GXIBA-1
OBJECT_ID      = 1998-067YE
CENTER_NAME    = EARTH
REF_FRAME      = TEME
TIME_SYSTEM    = UTC
MEAN_ELEMENT_THEORY = SGP/SGP4

EPOCH          = 2026-02-07T22:50:45.629664
MEAN_MOTION    = 15.49559502
ECCENTRICITY   = .0007805
INCLINATION    = 51.6318
RA_OF_ASC_NODE = 219.3305
ARG_OF_PERICENTER = 65.3010
MEAN_ANOMALY   = 294.8790

EPHEMERIS_TYPE = 0
CLASSIFICATION_TYPE = U
NORAD_CAT_ID   = 67688
ELEMENT_SET_NO = 999
REV_AT_EPOCH   = 9
BSTAR          = .75762E-3
MEAN_MOTION_DOT = .42387E-3
MEAN_MOTION_DDOT = 0

